IRIDIUM 166             
1 43570U 18061B   24140.56238296  .00000725  00000+0  25188-3 0  9997
2 43570  86.4000  13.7761 0001960  84.8847 275.2572 14.34220524304665
IRIDIUM 158             
1 43571U 18061C   24140.18181786  .00000018  00000+0 -48197-6 0  9991
2 43571  86.3996  13.9440 0002092  90.0409 270.1026 14.34213917304571
IRIDIUM 165             
1 43572U 18061D   24140.62580737  .00000675  00000+0  23386-3 0  9998
2 43572  86.4001  13.7909 0002123  90.1297 270.0142 14.34219519304661
IRIDIUM 155             
1 43573U 18061E   24140.58775884  .00000730  00000+0  25342-3 0  9999
2 43573  86.3998  13.7134 0001958  83.0640 277.0778 14.34219425304628
IRIDIUM 154             
1 43574U 18061F   24140.56872153  .00000250  00000+0  82268-4 0  9993
2 43574  86.4004  13.8176 0002402  85.0401 275.1069 14.34219633304675
IRIDIUM 163             
1 43575U 18061G   24140.61946414  .00000262  00000+0  86572-4 0  9997
2 43575  86.4000  13.7361 0002191  82.2050 277.9394 14.34214765304651
IRIDIUM 156             
1 43576U 18061H   24140.17548296  .00000698  00000+0  24201-3 0  9998
2 43576  86.3999  13.9273 0002100  87.7945 272.3492 14.34219871304588
IRIDIUM 164             
1 43577U 18061J   24140.57506541  .00000637  00000+0  22050-3 0  9993
2 43577  86.4001  13.7889 0002410  90.5394 269.6078 14.34213877304689
